GLOBALSTAR M023 [+]     
1 25621U 99004A   24108.74453769 -.00000045  00000+0  32651-3 0  9997
2 25621  52.0102 268.8737 0009540 265.8808 197.2004 12.62450592161999
GLOBALSTAR M040 [-]     
1 25622U 99004B   24108.62863549 -.00000037  00000+0  37555-3 0  9995
2 25622  51.9910 272.7554 0001169 140.6179 297.8637 12.61971391161528
GLOBALSTAR M036 [-]     
1 25623U 99004C   24108.81994406 -.00000060  00000+0  32457-3 0  9996
2 25623  51.9963 281.4624 0010673 317.2863 150.4086 11.86566853128483
GLOBALSTAR M038 [-]     
1 25624U 99004D   24108.59112434 -.00000060  00000+0  28641-3 0  9995
2 25624  51.9965 217.2074 0001627 227.5996 239.6529 12.32497051149896
GLOBALSTAR M022 [-]     
1 25649U 99012A   24108.90536132 -.00000105  00000+0 -21344-3 0  9995
2 25649  52.0078   6.9913 0003118  50.9911  29.0818 12.02480064125212
GLOBALSTAR M041 [-]     
1 25650U 99012B   24108.64419138 -.00000066  00000+0  25270-3 0  9991
2 25650  52.0012 236.1779 0002584 180.5359 179.5475 11.96660367127334
GLOBALSTAR M046 [-]     
1 25651U 99012C   24108.07202826 -.00000056  00000+0  35792-3 0  9992
2 25651  52.0075 334.9473 0002915 112.5275  54.2113 12.09389235132108
GLOBALSTAR M037 [+]     
1 25652U 99012D   24108.23924368 -.00000071  00000+0  18435-3 0  9995
2 25652  52.0027  41.1901 0001890 340.8020 166.3859 12.62401333157522
